[{"OBJECT_NAME":"STARLINK-4307","OBJECT_ID":"2022-077W","EPOCH":"2026-03-09T23:04:41.166048","MEAN_MOTION":15.05647746,"ECCENTRICITY":0.0001391,"INCLINATION":97.602,"RA_OF_ASC_NODE":251.4392,"ARG_OF_PERICENTER":92.2135,"MEAN_ANOMALY":267.9251,"EPHEMERIS_TYPE":0,"CLASSIFICATION_TYPE":"U","NORAD_CAT_ID":53063,"ELEMENT_SET_NO":999,"REV_AT_EPOCH":7260,"BSTAR":1.1770768e-5,"MEAN_MOTION_DOT":1.09e-6,"MEAN_MOTION_DDOT":0},{"OBJECT_NAME":"JILIN-01 KUANFU 02B 6","OBJECT_ID":"2024-169F","EPOCH":"2026-03-09T21:43:38.712288","MEAN_MOTION":15.09238946,"ECCENTRICITY":0.00150747,"INCLINATION":97.5549,"RA_OF_ASC_NODE":159.9459,"ARG_OF_PERICENTER":324.4254,"MEAN_ANOMALY":35.5968,"EPHEMERIS_TYPE":0,"CLASSIFICATION_TYPE":"U","NORAD_CAT_ID":61194,"ELEMENT_SET_NO":999,"REV_AT_EPOCH":8086,"BSTAR":0.00036442477,"MEAN_MOTION_DOT":5.751e-5,"MEAN_MOTION_DDOT":0}]
